NORAD_CAT_ID,OBJECT_NAME,OBJECT_TYPE,EPOCH,MEAN_MOTION,ECCENTRICITY,INCLINATION,RA_OF_ASC_NODE,ARG_OF_PERICENTER,MEAN_ANOMALY,BSTAR,MEAN_MOTION_DOT,MEAN_MOTION_DDOT,TLE_LINE0,TLE_LINE1,TLE_LINE2,SEMIMAJOR_AXIS,PERIOD,APOGEE,PERIGEE,DECAYED
55678.0,STARLINK-5314,PAYLOAD,2024-02-13 21:01:47,14.9830314,0.0002581,69.9989,267.4936,265.8264,94.26,0.00045027,5.28e-05,0.0,0 STARLINK-5314,1 55678U 23021BC  24044.87624857  .00005280  00000-0  45027-3 0  9996,2 55678  69.9989 267.4936 0002581 265.8264  94.2600 14.98303140 55924,6950.276,96.109,573.935,570.347,0.0
55678.0,STARLINK-5314,PAYLOAD,2024-02-13 22:37:55,14.98328957,0.0002707,69.9988,267.3251,267.1534,92.9316,-7.9619e-07,-1.02e-06,0.0,0 STARLINK-5314,1 55678U 23021BC  24044.94300339 -.00000102  00000-0 -79619-6 0  9997,2 55678  69.9988 267.3251 0002707 267.1534  92.9316 14.98328957 56234,6950.196,96.107,573.943,570.18,0.0
55678.0,STARLINK-5314,PAYLOAD,2024-02-14 00:14:03,14.98328953,0.0002714,69.9988,267.1568,267.3159,92.769,-1.0306e-06,-1.05e-06,0.0,0 STARLINK-5314,1 55678U 23021BC  24045.00976345 -.00000105  00000-0 -10306-5 0  9991,2 55678  69.9988 267.1568 0002714 267.3159  92.7690 14.98328953 55942,6950.196,96.107,573.947,570.175,0.0
55678.0,STARLINK-5314,PAYLOAD,2024-02-14 14:39:15,14.98331051,0.0002987,69.9979,265.6407,269.5747,90.507,7.1819e-05,7.64e-06,0.0,0 STARLINK-5314,1 55678U 23021BC  24045.61059983  .00000764  00000-0  71819-4 0  9992,2 55678  69.9979 265.6407 0002987 269.5747  90.5070 14.98331051 56331,6950.19,96.107,574.131,569.979,0.0
55678.0,STARLINK-5314,PAYLOAD,2024-02-14 22:39:55,14.98333226,0.000299,69.9979,264.7995,270.5863,89.4953,9.2127e-05,1.006e-05,0.0,0 STARLINK-5314,1 55678U 23021BC  24045.94439774  .00001006  00000-0  92127-4 0  9993,2 55678  69.9979 264.7995 0002990 270.5863  89.4953 14.98333226 56386,6950.183,96.107,574.126,569.97,0.0
55678.0,STARLINK-5314,PAYLOAD,2024-02-15 00:16:03,14.98334534,0.0002985,69.998,264.6312,270.6985,89.3832,0.00010537,1.165e-05,0.0,0 STARLINK-5314,1 55678U 23021BC  24046.01115647  .00001165  00000-0  10537-3 0  9992,2 55678  69.9980 264.6312 0002985 270.6985  89.3832 14.98334534 56096,6950.179,96.107,574.118,569.969,0.0
55678.0,STARLINK-5314,PAYLOAD,2024-02-15 08:16:44,14.98328828,0.0002971,69.9981,263.7895,270.9167,89.1652,6.2556e-05,6.53e-06,0.0,0 STARLINK-5314,1 55678U 23021BC  24046.34496075  .00000653  00000-0  62556-4 0  9995,2 55678  69.9981 263.7895 0002971 270.9167  89.1652 14.98328828 56146,6950.197,96.107,574.126,569.997,0.0
55678.0,STARLINK-5314,PAYLOAD,2024-02-15 14:41:17,14.98328388,0.0002958,69.9982,263.1164,270.8535,89.2285,-1.2437e-07,-9.4e-07,0.0,0 STARLINK-5314,1 55678U 23021BC  24046.61200339 -.00000094  00000-0 -12437-6 0  9997,2 55678  69.9982 263.1164 0002958 270.8535  89.2285 14.98328388 56484,6950.198,96.107,574.119,570.007,0.0
55678.0,STARLINK-5314,PAYLOAD,2024-02-15 22:41:57,14.98329479,0.0002944,69.9981,262.2744,270.1641,89.918,1.1685e-05,4.6e-07,0.0,0 STARLINK-5314,1 55678U 23021BC  24046.94580237  .00000046  00000-0  11685-4 0  9998,2 55678  69.9981 262.2744 0002944 270.1641  89.9180 14.98329479 56532,6950.195,96.107,574.106,570.013,0.0
55678.0,STARLINK-5314,PAYLOAD,2024-02-16 14:43:17,14.98333637,0.0002891,69.9983,260.5909,270.5801,89.5027,1.0661e-05,3.4e-07,0.0,0 STARLINK-5314,1 55678U 23021BC  24047.61339915  .00000034  00000-0  10661-4 0  9998,2 55678  69.9983 260.5909 0002891 270.5801  89.5027 14.98333637 56639,6950.182,96.107,574.056,570.037,0.0
55678.0,STARLINK-5314,PAYLOAD,2024-02-16 19:31:41,14.98333277,0.0002896,69.9983,260.086,270.588,89.4948,7.4278e-06,-4e-08,0.0,0 STARLINK-5314,1 55678U 23021BC  24047.81367902 -.00000004  00000-0  74278-5 0  9990,2 55678  69.9983 260.0860 0002896 270.5880  89.4948 14.98333277 56363,6950.183,96.107,574.061,570.035,0.0
55678.0,STARLINK-5314,PAYLOAD,2024-02-16 21:07:49,14.98333495,0.0002887,69.9982,259.9177,270.3486,89.7342,2.6845e-06,-6.1e-07,0.0,0 STARLINK-5314,1 55678U 23021BC  24047.88043887 -.00000061  00000-0  26845-5 0  9990,2 55678  69.9982 259.9177 0002887 270.3486  89.7342 14.98333495 56677,6950.182,96.107,574.054,570.041,0.0
55678.0,STARLINK-5314,PAYLOAD,2024-02-17 14:45:18,14.98330334,0.0002957,69.9978,258.0661,269.2211,90.861,5.1284e-05,5.19e-06,0.0,0 STARLINK-5314,1 55678U 23021BC  24048.61479830  .00000519  00000-0  51284-4 0  9994,2 55678  69.9978 258.0661 0002957 269.2211  90.8610 14.98330334 56783,6950.192,96.107,574.112,570.002,0.0
55678.0,STARLINK-5314,PAYLOAD,2024-02-17 19:33:42,14.98330409,0.0002962,69.9979,257.5611,269.244,90.838,4.9906e-05,5.02e-06,0.0,0 STARLINK-5314,1 55678U 23021BC  24048.81507821  .00000502  00000-0  49906-4 0  9998,2 55678  69.9979 257.5611 0002962 269.2440  90.8380 14.98330409 56511,6950.192,96.107,574.115,569.998,0.0
55678.0,STARLINK-5314,PAYLOAD,2024-02-17 22:45:58,14.98331859,0.0002953,69.9978,257.2243,269.5716,90.5105,5.4996e-05,5.63e-06,0.0,0 STARLINK-5314,1 55678U 23021BC  24048.94859700  .00000563  00000-0  54996-4 0  9990,2 55678  69.9978 257.2243 0002953 269.5716  90.5105 14.98331859 56834,6950.187,96.107,574.105,570.0,0.0
55678.0,STARLINK-5314,PAYLOAD,2024-02-18 14:47:19,14.98333532,0.0002884,69.9979,255.5405,270.1423,89.9406,3.5385e-05,3.29e-06,0.0,0 STARLINK-5314,1 55678U 23021BC  24049.61619543  .00000329  00000-0  35385-4 0  9995,2 55678  69.9979 255.5405 0002884 270.1423  89.9406 14.98333532 56939,6950.182,96.107,574.051,570.043,0.0
55678.0,STARLINK-5314,PAYLOAD,2024-02-18 19:35:43,14.98333737,0.0002892,69.9979,255.0357,269.4236,90.6591,3.4536e-05,3.19e-06,0.0,0 STARLINK-5314,1 55678U 23021BC  24049.81647480  .00000319  00000-0  34536-4 0  9994,2 55678  69.9979 255.0357 0002892 269.4236  90.6591 14.98333737 56663,6950.181,96.107,574.056,570.036,0.0
55678.0,STARLINK-5314,PAYLOAD,2024-02-18 22:47:59,14.98335377,0.0002845,69.9978,254.6988,269.7702,90.3131,5.6226e-05,5.78e-06,0.0,0 STARLINK-5314,1 55678U 23021BC  24049.94999286  .00000578  00000-0  56226-4 0  9999,2 55678  69.9978 254.6988 0002845 269.7702  90.3131 14.98335377 56980,6950.176,96.107,574.019,570.064,0.0
55678.0,STARLINK-5314,PAYLOAD,2024-02-19 14:49:20,14.98328411,0.0002813,69.9978,253.0155,270.7083,89.3754,-3.2992e-05,-4.87e-06,0.0,0 STARLINK-5314,1 55678U 23021BC  24050.61759853 -.00000487  00000-0 -32992-4 0  9994,2 55678  69.9978 253.0155 0002813 270.7083  89.3754 14.98328411 57080,6950.198,96.107,574.018,570.108,0.0
55678.0,STARLINK-5314,PAYLOAD,2024-02-19 19:37:44,14.98326139,0.0002807,69.9979,252.5106,270.3889,89.6948,-3.6388e-05,-5.27e-06,0.0,0 STARLINK-5314,1 55678U 23021BC  24050.81788023 -.00000527  00000-0 -36388-4 0  9995,2 55678  69.9979 252.5106 0002807 270.3889  89.6948 14.98326139 56817,6950.205,96.107,574.021,570.119,0.0
55678.0,STARLINK-5314,PAYLOAD,2024-02-19 22:50:01,14.98322843,0.000287,69.9979,252.174,269.7924,90.2906,-7.8359e-05,-1.028e-05,0.0,0 STARLINK-5314,1 55678U 23021BC  24050.95140349 -.00001028  00000-0 -78359-4 0  9994,2 55678  69.9979 252.1740 0002870 269.7924  90.2906 14.98322843 57135,6950.215,96.107,574.075,570.085,0.0
55678.0,STARLINK-5314,PAYLOAD,2024-02-20 14:51:20,14.98345681,0.000297,69.9978,250.4904,271.2388,88.8431,0.00014803,1.674e-05,0.0,0 STARLINK-5314,1 55678U 23021BC  24051.61898260  .00001674  00000-0  14803-3 0  9998,2 55678  69.9978 250.4904 0002970 271.2388  88.8431 14.98345681 57232,6950.144,96.106,574.074,569.945,0.0
55678.0,STARLINK-5314,PAYLOAD,2024-02-20 19:39:44,14.98341739,0.000263,69.9981,249.9833,257.1734,102.9131,0.00017781,2.03e-05,0.0,0 STARLINK-5314,1 55678U 23021BC  24051.81926171  .00002030  00000-0  17781-3 0  9998,2 55678  69.9981 249.9833 0002630 257.1734 102.9131 14.98341739 56965,6950.157,96.106,573.849,570.194,0.0
55678.0,STARLINK-5314,PAYLOAD,2024-02-20 22:51:59,14.98357498,0.0002918,69.9982,249.6501,270.6085,89.474,0.00027706,3.217e-05,0.0,0 STARLINK-5314,1 55678U 23021BC  24051.95276677  .00003217  00000-0  27706-3 0  9998,2 55678  69.9982 249.6501 0002918 270.6085  89.4740 14.98357498 57283,6950.108,96.105,574.001,569.945,0.0
55678.0,STARLINK-5314,PAYLOAD,2024-02-21 06:52:40,14.98339952,0.000285,69.998,248.8072,270.9944,89.0889,7.9613e-05,8.57e-06,0.0,0 STARLINK-5314,1 55678U 23021BC  24052.28657982  .00000857  00000-0  79613-4 0  9999,2 55678  69.9980 248.8072 0002850 270.9944  89.0889 14.98339952 57035,6950.162,96.106,574.008,570.046,0.0
55678.0,STARLINK-5314,PAYLOAD,2024-02-21 14:53:21,14.98332385,0.0002721,69.998,247.9654,269.6822,90.4025,9.7714e-05,1.073e-05,0.0,0 STARLINK-5314,1 55678U 23021BC  24052.62038288  .00001073  00000-0  97714-4 0  9992,2 55678  69.9980 247.9654 0002721 269.6822  90.4025 14.98332385 57387,6950.186,96.107,573.942,570.159,0.0
55678.0,STARLINK-5314,PAYLOAD,2024-02-21 19:41:45,14.98325164,0.0002999,69.9984,247.4604,267.918,92.1636,1.0194e-05,2.9e-07,0.0,0 STARLINK-5314,1 55678U 23021BC  24052.82066919  .00000029  00000-0  10194-4 0  9993,2 55678  69.9984 247.4604 0002999 267.9180  92.1636 14.98325164 57111,6950.208,96.107,574.157,569.988,0.0
55678.0,STARLINK-5314,PAYLOAD,2024-02-21 22:54:01,14.98325087,0.0003138,69.9983,247.1244,267.9733,92.1067,4.1932e-06,-4.3e-07,0.0,0 STARLINK-5314,1 55678U 23021BC  24052.95418938 -.00000043  00000-0  41932-5 0  9991,2 55678  69.9983 247.1244 0003138 267.9733  92.1067 14.98325087 57434,6950.208,96.107,574.254,569.892,0.0
55678.0,STARLINK-5314,PAYLOAD,2024-02-22 14:55:22,14.98337454,0.0002883,69.9991,245.4406,269.9465,90.1364,-0.00021437,-2.65e-05,0.0,0 STARLINK-5314,1 55678U 23021BC  24053.62178849 -.00002650  00000-0 -21437-3 0  9993,2 55678  69.9991 245.4406 0002883 269.9465  90.1364 14.98337454 57534,6950.17,96.107,574.039,570.031,0.0
55678.0,STARLINK-5314,PAYLOAD,2024-02-22 19:43:46,14.98339503,0.0003087,69.9986,244.9359,268.7978,91.2827,-0.00028439,-3.486e-05,0.0,0 STARLINK-5314,1 55678U 23021BC  24053.82206778 -.00003486  00000-0 -28439-3 0  9995,2 55678  69.9986 244.9359 0003087 268.7978  91.2827 14.98339503 57265,6950.164,96.106,574.174,569.883,0.0
